COSMOS 2433 (720)       
1 32275U 07052A   23300.05874200 -.00000053  00000+0  00000+0 0  9994
2 32275  66.0075 348.1823 0005217 241.1043 118.9144  2.13103989124555
COSMOS 2432 (719)       
1 32276U 07052B   23300.09792848 -.00000053  00000+0  00000+0 0  9996
2 32276  66.0219 348.2907 0010064 311.6406  25.3374  2.13103146124542
COSMOS 2434 (721)       
1 32393U 07065A   23300.43242583 -.00000009  00000+0  00000+0 0  9995
2 32393  64.3312 224.5033 0002214  69.0622 108.9877  2.13103015123264
COSMOS 2436 (723)       
1 32395U 07065C   23299.32732278 -.00000017  00000+0  00000+0 0  9996
2 32395  64.3400 224.6030 0016401 359.3973 186.3024  2.13102641123166
COSMOS 2456 (730)       
1 36111U 09070A   23299.52959522  .00000069  00000+0  00000+0 0  9995
2 36111  64.5135 104.0136 0001221 330.7992  33.0369  2.13099020107875
COSMOS 2457 (733)       
1 36112U 09070B   23299.83124019  .00000065  00000+0  00000+0 0  9991
2 36112  64.4976 103.8674 0006583 148.9308 217.5135  2.13101203107886
COSMOS 2460 (732)       
1 36402U 10007C   23300.31203806 -.00000053  00000+0  00000+0 0  9991
2 36402  65.8688 346.8802 0002292 242.6961 121.6122  2.13106166106282
COSMOS 2476 (744)       
1 37867U 11064A   23300.26143572  .00000062  00000+0  00000+0 0  9997
2 37867  64.7925 105.5358 0021557 230.0384 244.9990  2.13101629 93276
COSMOS 2477 (745)       
1 37868U 11064B   23300.10950083  .00000065  00000+0  00000+0 0  9997
2 37868  64.7998 105.6110 0018752 230.0655 306.2726  2.13101481 93228
COSMOS 2475 (743)       
1 37869U 11064C   23300.12782865  .00000065  00000+0  00000+0 0  9991
2 37869  64.8068 105.6231 0022668 248.4743 260.4605  2.13101764 93236
COSMOS 2485 (747)       
1 39155U 13019A   23300.05340181  .00000067  00000+0  00000+0 0  9998
2 39155  64.9524 106.0777 0022089 226.0720 133.7670  2.13101745 81733
COSMOS 2492 (754)       
1 39620U 14012A   23300.47821723 -.00000053  00000+0  00000+0 0  9997
2 39620  65.7521 346.4855 0013250 310.7911  49.1652  2.13103037 74701
COSMOS 2500 (755)       
1 40001U 14032A   23299.25303644 -.00000049  00000+0  00000+0 0  9999
2 40001  65.6906 346.3502 0008588 212.9578 147.0591  2.13105852 72895
COSMOS 2501 (702K)      
1 40315U 14075A   23299.50353207 -.00000016  00000+0  00000+0 0  9996
2 40315  63.6342 223.8430 0019026 208.7404 151.1619  2.13101172 69292
COSMOS 2514 (751)       
1 41330U 16008A   23299.95429595 -.00000051  00000+0  00000+0 0  9994
2 41330  65.4872 345.8946 0012548 217.0395 142.9443  2.13102498 60071
COSMOS 2522 (752)       
1 42939U 17055A   23300.26506554 -.00000011  00000+0  00000+0 0  9997
2 42939  64.0949 224.7729 0007865 241.6977 118.2305  2.13101931 47435
COSMOS 2527 (756)       
1 43508U 18053A   23299.75450573  .00000072  00000+0  00000+0 0  9995
2 43508  65.1132 106.1912 0007784 213.0762 146.8985  2.13102335 41722
COSMOS 2529 (757)       
1 43687U 18086A   23299.38455898 -.00000017  00000+0  00000+0 0  9993
2 43687  64.3103 225.2526 0009586 264.6275  95.2675  2.13101968 38726
COSMOS 2534 (758)       
1 44299U 19030A   23300.20999337 -.00000012  00000+0  00000+0 0  9993
2 44299  64.3829 225.1558 0011918 285.9235 121.4619  2.13101740 34374
COSMOS 2544 (759)       
1 44850U 19088A   23299.22903458  .00000078  00000+0  00000+0 0  9998
2 44850  65.0993 106.0507 0011339 247.4391 112.4672  2.13102095 30156
COSMOS 2545 (760)       
1 45358U 20018A   23300.36444965 -.00000055  00000+0  00000+0 0  9994
2 45358  64.8273 346.0826 0011653 244.8382 115.1109  2.13102478 28122
COSMOS 2547 (705K)      
1 46805U 20075A   23299.14538350 -.00000018  00000+0  00000+0 0  9999
2 46805  64.6108 224.7634 0007223 242.7428 117.1885  2.13102712 23343
COSMOS 2557 (706K)      
1 52984U 22075A   23299.77754356 -.00000055  00000+0  00000+0 0  9992
2 52984  64.7458 348.2567 0013413 276.0704  83.8465  2.13102106 10143
COSMOS 2559 (707K)      
1 54031U 22130A   23299.25043900 -.00000054  00000+0  00000+0 0  9997
2 54031  64.7173 348.4008 0007926 226.8783 133.1245  2.13101328  8121
COSMOS 2564 (761)       
1 54377U 22161A   23299.91250701 -.00000014  00000+0  00000+0 0  9992
2 54377  64.7515 224.8001 0009183 221.5371 138.3994  2.13102126  7085
COSMOS 2569 (703K)      
1 57517U 23114A   23299.93179956  .00000067  00000+0  00000+0 0  9991
2 57517  64.8228 105.2618 0008606 294.7308  65.2003  2.13104027  1718
